NORAD_CAT_ID,OBJECT_NAME,OBJECT_TYPE,EPOCH,MEAN_MOTION,ECCENTRICITY,INCLINATION,RA_OF_ASC_NODE,ARG_OF_PERICENTER,MEAN_ANOMALY,BSTAR,MEAN_MOTION_DOT,MEAN_MOTION_DDOT,TLE_LINE0,TLE_LINE1,TLE_LINE2,SEMIMAJOR_AXIS,PERIOD,APOGEE,PERIGEE,DECAYED
52551.0,STARLINK-3969,PAYLOAD,2024-08-09 22:06:12,15.08842925,0.0002071,53.2159,198.3388,88.5671,271.5558,8.1787e-05,1.014e-05,0.0,0 STARLINK-3969,1 52551U 22051U   24222.92098160  .00001014  00000-0  81787-4 0  9996,2 52551  53.2159 198.3388 0002071  88.5671 271.5558 15.08842925124374,6917.871,95.437,541.169,538.304,0.0
52551.0,STARLINK-3969,PAYLOAD,2024-08-10 04:27:45,15.08836238,0.0001498,53.2163,197.1464,106.0576,254.0581,3.9465e-05,3.4e-06,0.0,0 STARLINK-3969,1 52551U 22051U   24223.18594548  .00000340  00000-0  39465-4 0  9993,2 52551  53.2163 197.1464 0001498 106.0576 254.0581 15.08836238124487,6917.892,95.438,540.793,538.721,0.0
52551.0,STARLINK-3969,PAYLOAD,2024-08-10 07:38:31,15.08840909,0.0001441,53.2165,196.5513,101.8252,258.2902,6.2449e-05,7.06e-06,0.0,0 STARLINK-3969,1 52551U 22051U   24223.31842173  .00000706  00000-0  62449-4 0  9992,2 52551  53.2165 196.5513 0001441 101.8252 258.2902 15.08840909124437,6917.878,95.437,540.739,538.746,0.0
52551.0,STARLINK-3969,PAYLOAD,2024-08-11 02:43:07,15.08861358,0.0001415,53.2164,192.9845,91.8058,268.3096,0.0002068,3.007e-05,0.0,0 STARLINK-3969,1 52551U 22051U   24224.11328184  .00003007  00000-0  20680-3 0  9999,2 52551  53.2164 192.9845 0001415  91.8058 268.3096 15.08861358124625,6917.815,95.436,540.659,538.701,0.0
52551.0,STARLINK-3969,PAYLOAD,2024-08-11 15:26:11,15.08883747,0.0001799,53.2155,190.6037,80.2432,279.8763,0.00059244,9.164e-05,0.0,0 STARLINK-3969,1 52551U 22051U   24224.64319009  .00009164  00000-0  59244-3 0  9991,2 52551  53.2155 190.6037 0001799  80.2432 279.8763 15.08883747124709,6917.747,95.435,540.856,538.367,0.0
52551.0,STARLINK-3969,PAYLOAD,2024-08-11 21:47:46,15.08830241,0.0002015,53.2154,189.4154,84.8302,275.292,-1.5194e-05,-5.3e-06,0.0,0 STARLINK-3969,1 52551U 22051U   24224.90817853 -.00000530  00000-0 -15194-4 0  9997,2 52551  53.2154 189.4154 0002015  84.8302 275.2920 15.08830241124674,6917.91,95.438,541.169,538.381,0.0
52551.0,STARLINK-3969,PAYLOAD,2024-08-12 04:09:18,15.08833686,0.0001675,53.2153,188.2249,92.8676,267.2508,-0.00040535,-6.732e-05,0.0,0 STARLINK-3969,1 52551U 22051U   24225.17312935 -.00006732  00000-0 -40535-3 0  9994,2 52551  53.2153 188.2249 0001675  92.8676 267.2508 15.08833686124780,6917.9,95.438,540.923,538.606,0.0
52551.0,STARLINK-3969,PAYLOAD,2024-08-12 07:20:04,15.08840778,0.0001489,53.2147,187.6283,86.6407,273.4755,-0.00021329,-3.681e-05,0.0,0 STARLINK-3969,1 52551U 22051U   24225.30560701 -.00003681  00000-0 -21329-3 0  9995,2 52551  53.2147 187.6283 0001489  86.6407 273.4755 15.08840778124738,6917.878,95.438,540.773,538.713,0.0
52551.0,STARLINK-3969,PAYLOAD,2024-08-13 04:00:05,15.08830781,0.0001293,53.2155,183.766,87.3554,272.7587,0.000355,5.365e-05,0.0,0 STARLINK-3969,1 52551U 22051U   24226.16673364  .00005365  00000-0  35500-3 0  9995,2 52551  53.2155 183.7660 0001293  87.3554 272.7587 15.08830781124869,6917.909,95.438,540.668,538.879,0.0
52551.0,STARLINK-3969,PAYLOAD,2024-08-13 21:29:20,15.08824511,0.0001304,53.2157,180.4945,92.4762,267.638,2.4437e-05,1.01e-06,0.0,0 STARLINK-3969,1 52551U 22051U   24226.89538166  .00000101  00000-0  24437-4 0  9996,2 52551  53.2157 180.4945 0001304  92.4762 267.6380 15.08824511124972,6917.928,95.439,540.695,538.891,0.0
52551.0,STARLINK-3969,PAYLOAD,2024-08-14 03:50:54,15.08813102,0.000134,53.2145,179.3072,87.0861,273.0285,7.6397e-05,9.27e-06,0.0,0 STARLINK-3969,1 52551U 22051U   24227.16035123  .00000927  00000-0  76397-4 0  9990,2 52551  53.2145 179.3072 0001340  87.0861 273.0285 15.08813102125089,6917.963,95.439,540.755,538.901,0.0
52551.0,STARLINK-3969,PAYLOAD,2024-08-14 13:23:13,15.08815186,0.0001273,53.2146,177.5231,87.3014,272.8123,-9.5397e-05,-1.805e-05,0.0,0 STARLINK-3969,1 52551U 22051U   24227.55779522 -.00001805  00000-0 -95397-4 0  9990,2 52551  53.2146 177.5231 0001273  87.3014 272.8123 15.08815186125076,6917.956,95.439,540.702,538.941,0.0
52551.0,STARLINK-3969,PAYLOAD,2024-08-15 13:14:01,15.08825177,0.0001159,53.2166,173.0682,111.5896,248.5219,0.00010424,1.371e-05,0.0,0 STARLINK-3969,1 52551U 22051U   24228.55140265  .00001371  00000-0  10424-3 0  9990,2 52551  53.2166 173.0682 0001159 111.5896 248.5219 15.08825177125224,6917.926,95.438,540.592,538.989,0.0
52551.0,STARLINK-3969,PAYLOAD,2024-08-16 03:32:28,15.08841376,0.0001155,53.2165,170.3873,93.451,266.6614,0.00034323,5.179e-05,0.0,0 STARLINK-3969,1 52551U 22051U   24229.14755185  .00005179  00000-0  34323-3 0  9993,2 52551  53.2165 170.3873 0001155  93.4510 266.6614 15.08841376125388,6917.876,95.437,540.54,538.942,0.0
52551.0,STARLINK-3969,PAYLOAD,2024-08-17 04:58:38,15.08846021,0.0001113,53.2159,165.6312,98.7674,261.3444,0.00021162,3.082e-05,0.0,0 STARLINK-3969,1 52551U 22051U   24230.20739302  .00003082  00000-0  21162-3 0  9993,2 52551  53.2159 165.6312 0001113  98.7674 261.3444 15.08846021125542,6917.862,95.437,540.497,538.957,0.0
52551.0,STARLINK-3969,PAYLOAD,2024-08-18 03:14:02,15.08848953,0.0001621,53.218,161.4561,65.3435,294.7726,-4.8459e-05,-1.059e-05,0.0,0 STARLINK-3969,1 52551U 22051U   24231.13475385 -.00001059  00000-0 -48459-4 0  9997,2 52551  53.2180 161.4561 0001621  65.3435 294.7726 15.08848953125689,6917.853,95.437,540.839,538.597,0.0
52551.0,STARLINK-3969,PAYLOAD,2024-08-18 19:07:54,15.0884149,0.0001338,53.2162,158.4951,73.206,286.9079,-4.0426e-06,-3.52e-06,0.0,0 STARLINK-3969,1 52551U 22051U   24231.79715368 -.00000352  00000-0 -40426-5 0  9999,2 52551  53.2162 158.4951 0001338  73.2060 286.9079 15.08841490125712,6917.876,95.437,540.666,538.815,0.0
52551.0,STARLINK-3969,PAYLOAD,2024-08-19 04:40:12,15.08840422,0.0001294,53.2169,156.7048,88.2012,271.9128,-2.9183e-05,-7.52e-06,0.0,0 STARLINK-3969,1 52551U 22051U   24232.19459426 -.00000752  00000-0 -29183-4 0  9994,2 52551  53.2169 156.7048 0001294  88.2012 271.9128 15.08840422125848,6917.879,95.438,540.639,538.849,0.0
52551.0,STARLINK-3969,PAYLOAD,2024-08-19 12:37:08,15.08845978,0.0001278,53.2172,155.2186,106.5006,253.6127,-2.2985e-05,-6.54e-06,0.0,0 STARLINK-3969,1 52551U 22051U   24232.52578894 -.00000654  00000-0 -22985-4 0  9996,2 52551  53.2172 155.2186 0001278 106.5006 253.6127 15.08845978125823,6917.862,95.437,540.611,538.843,0.0
52551.0,STARLINK-3969,PAYLOAD,2024-08-20 04:31:00,15.08834605,0.0001537,53.2167,152.2443,94.199,265.9178,1.5095e-05,-4.8e-07,0.0,0 STARLINK-3969,1 52551U 22051U   24233.18819919 -.00000048  00000-0  15095-4 0  9995,2 52551  53.2167 152.2443 0001537  94.1990 265.9178 15.08834605125997,6917.897,95.438,540.825,538.699,0.0
52551.0,STARLINK-3969,PAYLOAD,2024-08-21 04:21:46,15.08841828,0.0001519,53.2173,147.7837,102.0386,258.0777,0.00010099,1.32e-05,0.0,0 STARLINK-3969,1 52551U 22051U   24234.18179364  .00001320  00000-0  10099-3 0  9990,2 52551  53.2173 147.7837 0001519 102.0386 258.0777 15.08841828126149,6917.875,95.437,540.791,538.689,0.0
52551.0,STARLINK-3969,PAYLOAD,2024-08-21 18:40:15,15.08834685,0.0001698,53.2173,145.1069,103.2649,256.8533,0.00011878,1.603e-05,0.0,0 STARLINK-3969,1 52551U 22051U   24234.77795841  .00001603  00000-0  11878-3 0  9999,2 52551  53.2173 145.1069 0001698 103.2649 256.8533 15.08834685126162,6917.897,95.438,540.936,538.587,0.0
52551.0,STARLINK-3969,PAYLOAD,2024-08-21 23:26:25,15.08828832,0.0001634,53.2173,144.2149,102.8848,257.2326,7.069e-05,8.37e-06,0.0,0 STARLINK-3969,1 52551U 22051U   24234.97668440  .00000837  00000-0  70690-4 0  9991,2 52551  53.2173 144.2149 0001634 102.8848 257.2326 15.08828832126260,6917.915,95.438,540.91,538.649,0.0
